{
"type": "FeatureCollection",
"name": "reach_14149500",
"crs": { "type": "name", "properties": { "name": "urn:ogc:def:crs:OGC:1.3:CRS84" } },
"features": [
{ "type": "Feature", "properties": { "nhdplus_comid": 23751844 }, "geometry": { "type": "LineString", "coordinates": [ [ -122.776404604, 43.9118011 ], [ -122.783118904, 43.911571994 ], [ -122.796394706, 43.915699996 ], [ -122.806435406, 43.923440099 ] ] } },
{ "type": "Feature", "properties": { "nhdplus_comid": 23751842 }, "geometry": { "type": "LineString", "coordinates": [ [ -122.806435406, 43.923440099 ], [ -122.806847401, 43.923562095 ] ] } },
{ "type": "Feature", "properties": { "nhdplus_comid": 23751840 }, "geometry": { "type": "LineString", "coordinates": [ [ -122.806847401, 43.923562095 ], [ -122.806916401, 43.9235771 ], [ -122.813057803, 43.925347097 ], [ -122.814164907, 43.925747998 ], [ -122.815423906, 43.926583096 ] ] } },
{ "type": "Feature", "properties": { "nhdplus_comid": 23751838 }, "geometry": { "type": "LineString", "coordinates": [ [ -122.815423906, 43.926583096 ], [ -122.8171321, 43.927716099 ], [ -122.820886306, 43.928684995 ] ] } },
{ "type": "Feature", "properties": { "nhdplus_comid": 23751836 }, "geometry": { "type": "LineString", "coordinates": [ [ -122.820886306, 43.928684995 ], [ -122.821062401, 43.930810094 ], [ -122.823328502, 43.931847095 ], [ -122.823793501, 43.932191096 ], [ -122.823991604, 43.933087096 ] ] } },
{ "type": "Feature", "properties": { "nhdplus_comid": 23751834 }, "geometry": { "type": "LineString", "coordinates": [ [ -122.823991604, 43.933087096 ], [ -122.823999606, 43.933110096 ], [ -122.824945606, 43.933797099 ] ] } },
{ "type": "Feature", "properties": { "nhdplus_comid": 23751832 }, "geometry": { "type": "LineString", "coordinates": [ [ -122.824945606, 43.933797099 ], [ -122.827165805, 43.934895098 ], [ -122.826562807, 43.936467096 ] ] } },
{ "type": "Feature", "properties": { "nhdplus_comid": 23751830 }, "geometry": { "type": "LineString", "coordinates": [ [ -122.826562807, 43.936467096 ], [ -122.826143906, 43.939244196 ], [ -122.828036107, 43.943360195 ], [ -122.828768201, 43.943921193 ], [ -122.829890303, 43.944432199 ], [ -122.830912307, 43.943879195 ], [ -122.832255304, 43.9433292 ], [ -122.834719405, 43.9439172 ], [ -122.838549703, 43.945874199 ], [ -122.842333905, 43.948475197 ], [ -122.844181001, 43.949036196 ], [ -122.848240204, 43.949395098 ] ] } },
{ "type": "Feature", "properties": { "nhdplus_comid": 23751800 }, "geometry": { "type": "LineString", "coordinates": [ [ -122.848240204, 43.949395098 ], [ -122.855228603, 43.9500321 ], [ -122.857219703, 43.952004097 ], [ -122.858562902, 43.9552541 ], [ -122.860699102, 43.957268193 ] ] } },
{ "type": "Feature", "properties": { "nhdplus_comid": 23751798 }, "geometry": { "type": "LineString", "coordinates": [ [ -122.860699102, 43.957268193 ], [ -122.8608291, 43.957455195 ], [ -122.861684106, 43.957936198 ], [ -122.861874104, 43.958115198 ], [ -122.861966103, 43.9583942 ], [ -122.863263302, 43.9602402 ], [ -122.863492303, 43.960721195 ], [ -122.863904402, 43.962369196 ] ] } },
{ "type": "Feature", "properties": { "nhdplus_comid": 23751796 }, "geometry": { "type": "LineString", "coordinates": [ [ -122.863904402, 43.962369196 ], [ -122.863965407, 43.963257194 ], [ -122.864667505, 43.965340197 ], [ -122.864857502, 43.965546198 ], [ -122.865269601, 43.966412194 ] ] } },
{ "type": "Feature", "properties": { "nhdplus_comid": 23751794 }, "geometry": { "type": "LineString", "coordinates": [ [ -122.865269601, 43.966412194 ], [ -122.865788601, 43.966561198 ] ] } },
{ "type": "Feature", "properties": { "nhdplus_comid": 25018631 }, "geometry": { "type": "LineString", "coordinates": [ [ -122.865788601, 43.966561198 ], [ -122.865956806, 43.966721199 ] ] } },
{ "type": "Feature", "properties": { "nhdplus_comid": 25018629 }, "geometry": { "type": "LineString", "coordinates": [ [ -122.865956806, 43.966721199 ], [ -122.867268704, 43.967969194 ], [ -122.868260801, 43.9681402 ] ] } },
{ "type": "Feature", "properties": { "nhdplus_comid": 23751790 }, "geometry": { "type": "LineString", "coordinates": [ [ -122.868260801, 43.9681402 ], [ -122.868786804, 43.9689072 ], [ -122.868825905, 43.969918296 ] ] } },
{ "type": "Feature", "properties": { "nhdplus_comid": 23751788 }, "geometry": { "type": "LineString", "coordinates": [ [ -122.868825905, 43.969918296 ], [ -122.868931904, 43.970582299 ] ] } },
{ "type": "Feature", "properties": { "nhdplus_comid": 23751782 }, "geometry": { "type": "LineString", "coordinates": [ [ -122.868931904, 43.970582299 ], [ -122.877279304, 43.972657196 ], [ -122.886778802, 43.976773195 ] ] } }
]
}
