{
"type": "FeatureCollection",
"name": "reach_14181400",
"crs": { "type": "name", "properties": { "name": "urn:ogc:def:crs:OGC:1.3:CRS84" } },
"features": [
{ "type": "Feature", "properties": { "nhdplus_comid": 23780513 }, "geometry": { "type": "LineString", "coordinates": [ [ -122.282958403, 44.750481196 ], [ -122.283080406, 44.750679195 ], [ -122.284842506, 44.751717195 ], [ -122.285933502, 44.752312198 ], [ -122.2869635, 44.752793193 ], [ -122.288504601, 44.753155194 ], [ -122.292678706, 44.753865197 ], [ -122.295562804, 44.754097193 ] ] } },
{ "type": "Feature", "properties": { "nhdplus_comid": 23780511 }, "geometry": { "type": "LineString", "coordinates": [ [ -122.295562804, 44.754097193 ], [ -122.297644801, 44.754212193 ], [ -122.299987905, 44.754548199 ], [ -122.302397907, 44.755124196 ], [ -122.303772002, 44.755284198 ], [ -122.306022003, 44.755467199 ], [ -122.307274103, 44.755764194 ], [ -122.308754101, 44.756314196 ], [ -122.311088204, 44.756382197 ], [ -122.3123172, 44.756703198 ], [ -122.316131301, 44.758480094 ], [ -122.318283401, 44.759243093 ], [ -122.318954401, 44.7594001 ], [ -122.319794402, 44.759423099 ] ] } },
{ "type": "Feature", "properties": { "nhdplus_comid": 23780509 }, "geometry": { "type": "LineString", "coordinates": [ [ -122.319794402, 44.759423099 ], [ -122.320526406, 44.7593081 ] ] } },
{ "type": "Feature", "properties": { "nhdplus_comid": 23780507 }, "geometry": { "type": "LineString", "coordinates": [ [ -122.320526406, 44.7593081 ], [ -122.3211364, 44.759079099 ], [ -122.322647505, 44.759213097 ], [ -122.324760504, 44.759056099 ], [ -122.325279504, 44.758942097 ], [ -122.325760506, 44.758709095 ], [ -122.326340504, 44.758343093 ], [ -122.326530501, 44.758030094 ], [ -122.327232607, 44.757431097 ], [ -122.327522606, 44.757271096 ], [ -122.328354605, 44.756981097 ], [ -122.330375604, 44.756615095 ], [ -122.330604605, 44.7564971 ] ] } },
{ "type": "Feature", "properties": { "nhdplus_comid": 23780505 }, "geometry": { "type": "LineString", "coordinates": [ [ -122.330604605, 44.7564971 ], [ -122.331245601, 44.7564741 ], [ -122.333366707, 44.756108098 ], [ -122.334228702, 44.755833097 ], [ -122.334358707, 44.755692095 ] ] } },
{ "type": "Feature", "properties": { "nhdplus_comid": 23780503 }, "geometry": { "type": "LineString", "coordinates": [ [ -122.334358707, 44.755692095 ], [ -122.3348087, 44.755738094 ], [ -122.335449703, 44.755993098 ], [ -122.336220801, 44.755829096 ], [ -122.336700805, 44.755921096 ], [ -122.337921806, 44.755856097 ], [ -122.338722803, 44.755852096 ], [ -122.340393901, 44.756176099 ], [ -122.3416759, 44.756443098 ], [ -122.344498001, 44.7569931 ], [ -122.344659001, 44.757111095 ] ] } },
{ "type": "Feature", "properties": { "nhdplus_comid": 23780501 }, "geometry": { "type": "LineString", "coordinates": [ [ -122.344659001, 44.757111095 ], [ -122.345078006, 44.757176094 ], [ -122.346810006, 44.757710099 ], [ -122.348321103, 44.757931098 ], [ -122.352364205, 44.757840097 ], [ -122.358720303, 44.757470094 ], [ -122.361192405, 44.757401094 ], [ -122.361733407, 44.757496096 ], [ -122.362595402, 44.757492095 ], [ -122.362916403, 44.757447094 ], [ -122.363755405, 44.7571721 ], [ -122.364747405, 44.756989099 ], [ -122.368440501, 44.756966099 ], [ -122.368951507, 44.756897099 ], [ -122.369820602, 44.756668098 ], [ -122.371133603, 44.7560701 ], [ -122.372254603, 44.755474098 ], [ -122.374436602, 44.754307099 ], [ -122.374726705, 44.7542191 ], [ -122.376283705, 44.753373094 ], [ -122.3780457, 44.752392098 ], [ -122.3785647, 44.752179094 ], [ -122.379525803, 44.751976095 ], [ -122.380547807, 44.751980096 ], [ -122.381188802, 44.752156094 ], [ -122.382859804, 44.752507098 ], [ -122.385270901, 44.753140099 ], [ -122.387995005, 44.754155099 ], [ -122.390077002, 44.754723094 ], [ -122.391428106, 44.754956096 ], [ -122.391848102, 44.754978999 ], [ -122.392580107, 44.754745997 ], [ -122.394510105, 44.753333993 ], [ -122.395182103, 44.752941996 ], [ -122.396181203, 44.752651997 ], [ -122.397638202, 44.752509996 ] ] } },
{ "type": "Feature", "properties": { "nhdplus_comid": 23780499 }, "geometry": { "type": "LineString", "coordinates": [ [ -122.397638202, 44.752509996 ], [ -122.400125302, 44.753169999 ], [ -122.401827306, 44.753895 ], [ -122.402887307, 44.754844993 ] ] } },
{ "type": "Feature", "properties": { "nhdplus_comid": 23780497 }, "geometry": { "type": "LineString", "coordinates": [ [ -122.402887307, 44.754844993 ], [ -122.403078303, 44.755054995 ] ] } },
{ "type": "Feature", "properties": { "nhdplus_comid": 23780495 }, "geometry": { "type": "LineString", "coordinates": [ [ -122.403078303, 44.755054995 ], [ -122.4040014, 44.755184993 ], [ -122.405641407, 44.755229995 ], [ -122.406511404, 44.755161993 ], [ -122.408785507, 44.754848994 ], [ -122.4105855, 44.754749998 ], [ -122.4110355, 44.754634999 ], [ -122.411486506, 44.754322 ], [ -122.411547504, 44.753776997 ], [ -122.411486506, 44.753585994 ], [ -122.411417507, 44.752944998 ], [ -122.411516502, 44.752677999 ], [ -122.411867507, 44.752426997 ], [ -122.412287503, 44.752284996 ], [ -122.413668603, 44.752239995 ], [ -122.414278604, 44.752357997 ], [ -122.416841701, 44.753341995 ], [ -122.417482704, 44.753543995 ], [ -122.418383703, 44.753745995 ], [ -122.419184707, 44.753749996 ], [ -122.419504702, 44.753707998 ], [ -122.420145705, 44.753448993 ], [ -122.420885704, 44.752948999 ], [ -122.421266802, 44.752609998 ], [ -122.421755806, 44.751918994 ], [ -122.422296807, 44.751534 ], [ -122.422968805, 44.751511 ], [ -122.424959801, 44.751693994 ], [ -122.425920904, 44.751805 ], [ -122.427080907, 44.752269998 ], [ -122.427652903, 44.752540998 ], [ -122.429003902, 44.753341995 ], [ -122.429393001, 44.753612995 ], [ -122.429584004, 44.753795996 ], [ -122.431766003, 44.754985996 ], [ -122.433429107, 44.755767994 ], [ -122.434428103, 44.756015994 ], [ -122.435359105, 44.756019995 ], [ -122.436320104, 44.755718999 ], [ -122.439334206, 44.754276998 ], [ -122.440104201, 44.753864996 ], [ -122.441325203, 44.753337994 ], [ -122.441775203, 44.75327 ], [ -122.442065306, 44.753406994 ], [ -122.4422253, 44.753597997 ] ] } }
]
}
