{
"type": "FeatureCollection",
"name": "reach_14168000",
"crs": { "type": "name", "properties": { "name": "urn:ogc:def:crs:OGC:1.3:CRS84" } },
"features": [
{ "type": "Feature", "properties": { "nhdplus_comid": 23763141 }, "geometry": { "type": "LineString", "coordinates": [ [ -123.298058003, 44.112962499 ], [ -123.301072203, 44.120470494 ] ] } },
{ "type": "Feature", "properties": { "nhdplus_comid": 23763139 }, "geometry": { "type": "LineString", "coordinates": [ [ -123.301072203, 44.120470494 ], [ -123.300278202, 44.1216795 ], [ -123.2997372, 44.1233005 ], [ -123.299775206, 44.124608494 ], [ -123.299866207, 44.124860495 ], [ -123.301201306, 44.128519394 ], [ -123.301293306, 44.129041396 ], [ -123.301423304, 44.129175395 ], [ -123.302529305, 44.132333398 ], [ -123.303895406, 44.136037394 ], [ -123.303734407, 44.136930399 ], [ -123.303353406, 44.137022398 ] ] } },
{ "type": "Feature", "properties": { "nhdplus_comid": 23763137 }, "geometry": { "type": "LineString", "coordinates": [ [ -123.303353406, 44.137022398 ], [ -123.303231403, 44.137437396 ], [ -123.302689403, 44.137800395 ], [ -123.302277401, 44.138582394 ], [ -123.302056402, 44.139314398 ], [ -123.297288306, 44.142213397 ], [ -123.296624206, 44.142972395 ], [ -123.296273202, 44.143838398 ], [ -123.296181306, 44.144800395 ] ] } },
{ "type": "Feature", "properties": { "nhdplus_comid": 23763135 }, "geometry": { "type": "LineString", "coordinates": [ [ -123.296181306, 44.144800395 ], [ -123.296021201, 44.145101398 ], [ -123.295701206, 44.146333396 ], [ -123.295701303, 44.147016399 ], [ -123.295319207, 44.147729397 ], [ -123.294587202, 44.1484624 ], [ -123.293572202, 44.149168395 ], [ -123.292748205, 44.150121398 ], [ -123.290398106, 44.152372494 ], [ -123.290269107, 44.153009497 ] ] } },
{ "type": "Feature", "properties": { "nhdplus_comid": 23763133 }, "geometry": { "type": "LineString", "coordinates": [ [ -123.290269107, 44.153009497 ], [ -123.290490106, 44.153188497 ], [ -123.290803201, 44.1537835 ], [ -123.292367205, 44.155687399 ], [ -123.2926182, 44.155866399 ], [ -123.293542303, 44.157217398 ], [ -123.293854304, 44.157537393 ], [ -123.293854304, 44.158060394 ], [ -123.293442301, 44.158609398 ], [ -123.293152303, 44.159276396 ], [ -123.291436203, 44.161172397 ], [ -123.291283205, 44.162111394 ], [ -123.290291205, 44.1632284 ], [ -123.289849207, 44.164281398 ], [ -123.290131204, 44.165723398 ], [ -123.290291302, 44.167387396 ], [ -123.290230304, 44.168577395 ], [ -123.289780304, 44.1690384 ], [ -123.288865201, 44.169473395 ], [ -123.285752103, 44.170434393 ], [ -123.281586006, 44.171228498 ], [ -123.2786339, 44.171918496 ], [ -123.277740903, 44.172372498 ], [ -123.277107902, 44.172967494 ], [ -123.276855901, 44.173353493 ], [ -123.276756905, 44.173742495 ], [ -123.276817903, 44.174436495 ], [ -123.277581006, 44.176218495 ], [ -123.277772002, 44.176511496 ], [ -123.277962007, 44.177286498 ], [ -123.277962007, 44.178186499 ], [ -123.277833, 44.178846493 ], [ -123.277230002, 44.179601498 ], [ -123.276336901, 44.180200495 ], [ -123.2734759, 44.181196496 ], [ -123.272590905, 44.181791499 ], [ -123.272079803, 44.182271495 ] ] } },
{ "type": "Feature", "properties": { "nhdplus_comid": 23763131 }, "geometry": { "type": "LineString", "coordinates": [ [ -123.272079803, 44.182271495 ], [ -123.272140801, 44.182729498 ], [ -123.272934906, 44.183824494 ], [ -123.274681903, 44.185567498 ], [ -123.274811007, 44.1858925 ], [ -123.275925003, 44.187349498 ], [ -123.277985103, 44.189386398 ], [ -123.278939106, 44.190824397 ], [ -123.279091105, 44.192266397 ], [ -123.279320106, 44.192678399 ], [ -123.2800152, 44.193254396 ], [ -123.280305207, 44.193548396 ], [ -123.280938201, 44.195035398 ], [ -123.281411201, 44.196588397 ], [ -123.2822043, 44.197046399 ], [ -123.282525301, 44.197145395 ], [ -123.283509307, 44.197828397 ], [ -123.285195403, 44.200777397 ], [ -123.285416402, 44.200983398 ], [ -123.286309406, 44.202699393 ], [ -123.286149405, 44.203222394 ], [ -123.285637401, 44.203657396 ], [ -123.285355404, 44.204504393 ], [ -123.284142405, 44.205667399 ], [ -123.283158407, 44.206174396 ], [ -123.282136403, 44.206491396 ], [ -123.279755302, 44.206857398 ], [ -123.278702304, 44.207132399 ], [ -123.275086105, 44.206907399 ], [ -123.273972102, 44.206998393 ], [ -123.273331106, 44.207223393 ], [ -123.2728891, 44.207704395 ], [ -123.272698104, 44.208135396 ], [ -123.272599101, 44.208711393 ] ] } }
]
}
