{
"type": "FeatureCollection",
"name": "reach_14162100",
"crs": { "type": "name", "properties": { "name": "urn:ogc:def:crs:OGC:1.3:CRS84" } },
"features": [
{ "type": "Feature", "properties": { "nhdplus_comid": 23773405 }, "geometry": { "type": "LineString", "coordinates": [ [ -122.328766704, 44.1721083 ], [ -122.329178706, 44.172127299 ], [ -122.330101803, 44.172288299 ], [ -122.330933802, 44.1723103 ], [ -122.331406802, 44.1721313 ], [ -122.3317267, 44.171143293 ], [ -122.331596702, 44.170781299 ], [ -122.331055604, 44.170186296 ], [ -122.330994502, 44.169915296 ], [ -122.331085406, 44.168862298 ], [ -122.332100302, 44.167462297 ], [ -122.332230307, 44.167195298 ], [ -122.332199104, 44.165845193 ], [ -122.332420103, 44.165269196 ], [ -122.332389802, 44.1626212 ], [ -122.332541704, 44.162091196 ], [ -122.332641505, 44.160561197 ], [ -122.332892403, 44.159554094 ], [ -122.333182402, 44.159157097 ], [ -122.333526403, 44.159054093 ] ] } },
{ "type": "Feature", "properties": { "nhdplus_comid": 23773403 }, "geometry": { "type": "LineString", "coordinates": [ [ -122.333526403, 44.159054093 ], [ -122.334640302, 44.1581311 ], [ -122.336677305, 44.156830095 ], [ -122.339149207, 44.155549094 ], [ -122.341689207, 44.154606096 ], [ -122.343154207, 44.153969094 ], [ -122.343307205, 44.153805099 ] ] } },
{ "type": "Feature", "properties": { "nhdplus_comid": 23773401 }, "geometry": { "type": "LineString", "coordinates": [ [ -122.343307205, 44.153805099 ], [ -122.343642205, 44.153164096 ] ] } },
{ "type": "Feature", "properties": { "nhdplus_comid": 23772991 }, "geometry": { "type": "LineString", "coordinates": [ [ -122.343642205, 44.153164096 ], [ -122.345183201, 44.153233096 ] ] } },
{ "type": "Feature", "properties": { "nhdplus_comid": 23772993 }, "geometry": { "type": "LineString", "coordinates": [ [ -122.345183201, 44.153233096 ], [ -122.352584407, 44.153229199 ], [ -122.354957402, 44.151951194 ], [ -122.356261306, 44.150384195 ], [ -122.357321903, 44.147172093 ] ] } },
{ "type": "Feature", "properties": { "nhdplus_comid": 23772995 }, "geometry": { "type": "LineString", "coordinates": [ [ -122.357321903, 44.147172093 ], [ -122.357733905, 44.145840093 ], [ -122.358366705, 44.144635096 ], [ -122.359503701, 44.144131094 ], [ -122.361067705, 44.143853098 ], [ -122.363958903, 44.144356094 ], [ -122.3655999, 44.144524097 ] ] } },
{ "type": "Feature", "properties": { "nhdplus_comid": 23772985 }, "geometry": { "type": "LineString", "coordinates": [ [ -122.3655999, 44.144524097 ], [ -122.369299702, 44.140912093 ] ] } },
{ "type": "Feature", "properties": { "nhdplus_comid": 23772987 }, "geometry": { "type": "LineString", "coordinates": [ [ -122.369299702, 44.140912093 ], [ -122.370008603, 44.140282094 ], [ -122.371138401, 44.138310097 ] ] } },
{ "type": "Feature", "properties": { "nhdplus_comid": 23772989 }, "geometry": { "type": "LineString", "coordinates": [ [ -122.371138401, 44.138310097 ], [ -122.371527307, 44.136838093 ], [ -122.372396201, 44.135903098 ], [ -122.37731, 44.132344097 ], [ -122.3800558, 44.129097998 ], [ -122.3804987, 44.127899997 ], [ -122.380528405, 44.126176 ], [ -122.381070301, 44.124965996 ], [ -122.381352201, 44.124183998 ], [ -122.3822762, 44.123565994 ] ] } },
{ "type": "Feature", "properties": { "nhdplus_comid": 23772945 }, "geometry": { "type": "LineString", "coordinates": [ [ -122.3822762, 44.123565994 ], [ -122.385175206, 44.122772999 ] ] } },
{ "type": "Feature", "properties": { "nhdplus_comid": 23772947 }, "geometry": { "type": "LineString", "coordinates": [ [ -122.385175206, 44.122772999 ], [ -122.386167303, 44.122696996 ], [ -122.388875306, 44.121913999 ] ] } },
{ "type": "Feature", "properties": { "nhdplus_comid": 23772949 }, "geometry": { "type": "LineString", "coordinates": [ [ -122.388875306, 44.121913999 ], [ -122.390050307, 44.121673994 ], [ -122.392255403, 44.121658996 ], [ -122.394223407, 44.121731095 ], [ -122.399213701, 44.122437097 ], [ -122.406485006, 44.122609198 ], [ -122.412283003, 44.1210142 ], [ -122.415167004, 44.120072193 ], [ -122.417966902, 44.118554197 ], [ -122.419774801, 44.116757199 ], [ -122.421338506, 44.1141022 ], [ -122.421864502, 44.112824194 ], [ -122.422086306, 44.111001194 ] ] } },
{ "type": "Feature", "properties": { "nhdplus_comid": 23772933 }, "geometry": { "type": "LineString", "coordinates": [ [ -122.422086306, 44.111001194 ], [ -122.423741102, 44.108559094 ], [ -122.425168, 44.107289098 ], [ -122.426518001, 44.106900096 ], [ -122.429830201, 44.107518196 ], [ -122.432843603, 44.108880199 ], [ -122.436933003, 44.112046294 ], [ -122.438963301, 44.114937395 ], [ -122.439665407, 44.115605399 ] ] } }
]
}
