{
"type": "FeatureCollection",
"name": "reach_14186600",
"crs": { "type": "name", "properties": { "name": "urn:ogc:def:crs:OGC:1.3:CRS84" } },
"features": [
{ "type": "Feature", "properties": { "nhdplus_comid": 23785769 }, "geometry": { "type": "LineString", "coordinates": [ [ -122.652555205, 44.415434897 ], [ -122.657483302, 44.414481893 ], [ -122.661984302, 44.414130896 ], [ -122.665433407, 44.416121796 ], [ -122.669934407, 44.4162478 ] ] } },
{ "type": "Feature", "properties": { "nhdplus_comid": 23785767 }, "geometry": { "type": "LineString", "coordinates": [ [ -122.669934407, 44.4162478 ], [ -122.670285404, 44.4162478 ], [ -122.672360502, 44.415514797 ], [ -122.6764125, 44.413851798 ] ] } },
{ "type": "Feature", "properties": { "nhdplus_comid": 23785719 }, "geometry": { "type": "LineString", "coordinates": [ [ -122.6764125, 44.413851798 ], [ -122.676671505, 44.413870797 ], [ -122.677976504, 44.413371794 ], [ -122.679639503, 44.412890799 ], [ -122.681294501, 44.412642799 ], [ -122.682508506, 44.412592798 ] ] } },
{ "type": "Feature", "properties": { "nhdplus_comid": 23785717 }, "geometry": { "type": "LineString", "coordinates": [ [ -122.682508506, 44.412592798 ], [ -122.685193606, 44.412581794 ], [ -122.689069606, 44.412779793 ], [ -122.6953867, 44.414046794 ], [ -122.699048802, 44.415141694 ], [ -122.700856805, 44.415499695 ], [ -122.7047019, 44.4154507 ], [ -122.7088449, 44.416255698 ], [ -122.710997, 44.416586697 ], [ -122.713476002, 44.416773699 ], [ -122.715391003, 44.416747697 ], [ -122.716932006, 44.416502699 ], [ -122.718428001, 44.416014694 ], [ -122.719359003, 44.415186696 ], [ -122.719992004, 44.413943693 ] ] } },
{ "type": "Feature", "properties": { "nhdplus_comid": 23785715 }, "geometry": { "type": "LineString", "coordinates": [ [ -122.719992004, 44.413943693 ], [ -122.720183, 44.413413696 ], [ -122.720411003, 44.412844695 ], [ -122.720403902, 44.410414696 ], [ -122.720761903, 44.409224793 ], [ -122.721555904, 44.408247799 ], [ -122.721936904, 44.407969795 ], [ -122.722638905, 44.407645799 ], [ -122.724675901, 44.407282799 ], [ -122.726941906, 44.406531796 ], [ -122.729971007, 44.405089796 ], [ -122.731314003, 44.404238798 ], [ -122.733892903, 44.401793793 ], [ -122.734593906, 44.401354797 ], [ -122.736318901, 44.4005768 ], [ -122.737020902, 44.400488794 ] ] } },
{ "type": "Feature", "properties": { "nhdplus_comid": 23785713 }, "geometry": { "type": "LineString", "coordinates": [ [ -122.737020902, 44.400488794 ], [ -122.737181, 44.4006688 ], [ -122.738203004, 44.401103795 ], [ -122.738836005, 44.401076794 ], [ -122.739569001, 44.4008708 ], [ -122.740622006, 44.400874794 ], [ -122.741423003, 44.401011795 ], [ -122.742827006, 44.401465796 ], [ -122.744101107, 44.4021338 ], [ -122.745092101, 44.402926795 ], [ -122.745703101, 44.403937794 ], [ -122.746847205, 44.405810699 ], [ -122.747389205, 44.4062187 ], [ -122.748030201, 44.406428695 ], [ -122.748953201, 44.406447694 ], [ -122.751242302, 44.406947695 ], [ -122.751463301, 44.407019697 ], [ -122.752417304, 44.406905696 ], [ -122.7549733, 44.405974694 ], [ -122.756186306, 44.405695699 ], [ -122.757147305, 44.4056997 ], [ -122.758734301, 44.405856699 ], [ -122.760107405, 44.406157695 ], [ -122.760649405, 44.406363696 ], [ -122.761290401, 44.406844698 ], [ -122.761252403, 44.408167593 ] ] } },
{ "type": "Feature", "properties": { "nhdplus_comid": 23785711 }, "geometry": { "type": "LineString", "coordinates": [ [ -122.761252403, 44.408167593 ], [ -122.760550506, 44.409705594 ], [ -122.7591765, 44.411986597 ], [ -122.759115502, 44.4124026 ] ] } },
{ "type": "Feature", "properties": { "nhdplus_comid": 23785709 }, "geometry": { "type": "LineString", "coordinates": [ [ -122.759115502, 44.4124026 ], [ -122.759382606, 44.416068494 ], [ -122.760031603, 44.416697495 ], [ -122.760573603, 44.416979499 ], [ -122.762045704, 44.419745497 ], [ -122.762945704, 44.421053395 ], [ -122.763609804, 44.423129395 ], [ -122.766752906, 44.426516399 ], [ -122.769004002, 44.428595297 ], [ -122.771209002, 44.4304263 ], [ -122.773200102, 44.432028294 ], [ -122.773772106, 44.433486193 ], [ -122.775230207, 44.435000196 ], [ -122.775962204, 44.436320193 ], [ -122.777122304, 44.439360097 ], [ -122.7772744, 44.441481099 ], [ -122.776694402, 44.443408094 ], [ -122.775947407, 44.444216095 ], [ -122.775420405, 44.445387095 ], [ -122.775451504, 44.447894 ], [ -122.775642507, 44.449129999 ] ] } }
]
}
