{
"type": "FeatureCollection",
"name": "reach_14150900",
"crs": { "type": "name", "properties": { "name": "urn:ogc:def:crs:OGC:1.3:CRS84" } },
"features": [
{ "type": "Feature", "properties": { "nhdplus_comid": 23752600 }, "geometry": { "type": "LineString", "coordinates": [ [ -122.745520607, 43.947461694 ], [ -122.758186102, 43.941887595 ] ] } },
{ "type": "Feature", "properties": { "nhdplus_comid": 23752598 }, "geometry": { "type": "LineString", "coordinates": [ [ -122.758186102, 43.941887595 ], [ -122.768676601, 43.943577595 ], [ -122.770294704, 43.943509594 ], [ -122.772346802, 43.944214597 ], [ -122.773078807, 43.944394596 ], [ -122.773872904, 43.944695599 ], [ -122.7788091, 43.945794493 ], [ -122.779404201, 43.946019493 ], [ -122.780228205, 43.946805499 ], [ -122.780610301, 43.9474006 ], [ -122.781525306, 43.948060594 ], [ -122.783646502, 43.948952593 ], [ -122.784310505, 43.949162595 ], [ -122.786683604, 43.949456498 ], [ -122.788140707, 43.949521497 ], [ -122.794442907, 43.948975496 ], [ -122.795900002, 43.949048497 ], [ -122.796716005, 43.948952496 ], [ -122.797891103, 43.948681496 ], [ -122.799280107, 43.948678397 ], [ -122.799631104, 43.9487774 ], [ -122.799951203, 43.948975399 ], [ -122.800043203, 43.949387498 ], [ -122.799951203, 43.949849494 ], [ -122.8003252, 43.950074494 ], [ -122.801401302, 43.950284496 ], [ -122.802354306, 43.950139396 ], [ -122.805009402, 43.949479394 ], [ -122.805643402, 43.949391395 ], [ -122.806947507, 43.949483395 ], [ -122.810365602, 43.9488234 ], [ -122.8114416, 43.948815398 ], [ -122.812227704, 43.949021399 ], [ -122.812669702, 43.949364394 ], [ -122.812768705, 43.949574396 ], [ -122.813119806, 43.950646393 ], [ -122.813272804, 43.950879395 ], [ -122.8138448, 43.951314397 ], [ -122.816027001, 43.9518824 ], [ -122.816920005, 43.952317394 ], [ -122.817141004, 43.952496395 ], [ -122.818339206, 43.954426393 ], [ -122.818469204, 43.9550374 ], [ -122.817996204, 43.956227399 ], [ -122.817835301, 43.957532398 ] ] } },
{ "type": "Feature", "properties": { "nhdplus_comid": 23752596 }, "geometry": { "type": "LineString", "coordinates": [ [ -122.817835301, 43.957532398 ], [ -122.818179302, 43.9584665 ], [ -122.818438306, 43.958748497 ], [ -122.8193544, 43.959138498 ], [ -122.819857404, 43.959084496 ], [ -122.820429407, 43.958905399 ], [ -122.821223401, 43.958420396 ], [ -122.821505405, 43.958329394 ], [ -122.822459504, 43.958329394 ], [ -122.823786601, 43.958539397 ], [ -122.825625606, 43.958535396 ], [ -122.826701701, 43.958401397 ], [ -122.828944802, 43.958405398 ], [ -122.830210805, 43.958512396 ], [ -122.831065901, 43.958722398 ], [ -122.832553007, 43.959454395 ], [ -122.834011003, 43.960042395 ], [ -122.834705107, 43.960499398 ], [ -122.835247107, 43.961232394 ], [ -122.835567206, 43.961941399 ], [ -122.835437201, 43.962998398 ], [ -122.835468203, 43.9637274 ], [ -122.835979305, 43.964554399 ], [ -122.836292304, 43.964917399 ], [ -122.836773306, 43.9651694 ], [ -122.837375402, 43.9651694 ], [ -122.839519404, 43.964459397 ], [ -122.840129502, 43.964478396 ], [ -122.840564504, 43.964688398 ], [ -122.841045506, 43.965047397 ], [ -122.842090607, 43.966401398 ], [ -122.842533603, 43.966698393 ], [ -122.843387701, 43.966950394 ], [ -122.844181702, 43.966908395 ], [ -122.844967701, 43.966557398 ], [ -122.8455697, 43.966153398 ], [ -122.845890701, 43.965783395 ], [ -122.846935801, 43.965092294 ], [ -122.847820804, 43.964795299 ], [ -122.848384805, 43.9647073 ], [ -122.849750906, 43.964844294 ], [ -122.850162901, 43.965005293 ], [ -122.851109006, 43.965619296 ], [ -122.851750001, 43.966511294 ], [ -122.851903006, 43.967087299 ], [ -122.852093101, 43.967431299 ], [ -122.852193102, 43.967682295 ], [ -122.852536105, 43.968072295 ], [ -122.855549306, 43.970261395 ], [ -122.8556723, 43.970444396 ], [ -122.856213406, 43.970830396 ], [ -122.858082503, 43.971634395 ], [ -122.860242605, 43.972043298 ], [ -122.861378603, 43.972115293 ], [ -122.862263702, 43.971974298 ], [ -122.863240704, 43.971703298 ], [ -122.865048707, 43.971039295 ], [ -122.866666801, 43.970780298 ], [ -122.867886804, 43.970662296 ] ] } }
]
}
