{
"type": "FeatureCollection",
"name": "reach_14149000",
"crs": { "type": "name", "properties": { "name": "urn:ogc:def:crs:OGC:1.3:CRS84" } },
"features": [
{ "type": "Feature", "properties": { "nhdplus_comid": 23751852 }, "geometry": { "type": "LineString", "coordinates": [ [ -122.728564307, 43.896679893 ], [ -122.736363202, 43.906430095 ], [ -122.744405001, 43.9121942 ], [ -122.752408706, 43.914914295 ] ] } },
{ "type": "Feature", "properties": { "nhdplus_comid": 23751850 }, "geometry": { "type": "LineString", "coordinates": [ [ -122.752408706, 43.914914295 ], [ -122.753064707, 43.914807297 ] ] } },
{ "type": "Feature", "properties": { "nhdplus_comid": 23751848 }, "geometry": { "type": "LineString", "coordinates": [ [ -122.753064707, 43.914807297 ], [ -122.7561168, 43.914319195 ] ] } },
{ "type": "Feature", "properties": { "nhdplus_comid": 23751846 }, "geometry": { "type": "LineString", "coordinates": [ [ -122.7561168, 43.914319195 ], [ -122.760007903, 43.912186198 ], [ -122.768347204, 43.911522098 ], [ -122.776404604, 43.9118011 ] ] } },
{ "type": "Feature", "properties": { "nhdplus_comid": 23751844 }, "geometry": { "type": "LineString", "coordinates": [ [ -122.776404604, 43.9118011 ], [ -122.783118904, 43.911571994 ], [ -122.796394706, 43.915699996 ], [ -122.806435406, 43.923440099 ] ] } },
{ "type": "Feature", "properties": { "nhdplus_comid": 23751842 }, "geometry": { "type": "LineString", "coordinates": [ [ -122.806435406, 43.923440099 ], [ -122.806847401, 43.923562095 ] ] } },
{ "type": "Feature", "properties": { "nhdplus_comid": 23751840 }, "geometry": { "type": "LineString", "coordinates": [ [ -122.806847401, 43.923562095 ], [ -122.806916401, 43.9235771 ], [ -122.813057803, 43.925347097 ], [ -122.814164907, 43.925747998 ], [ -122.815423906, 43.926583096 ] ] } },
{ "type": "Feature", "properties": { "nhdplus_comid": 23751838 }, "geometry": { "type": "LineString", "coordinates": [ [ -122.815423906, 43.926583096 ], [ -122.8171321, 43.927716099 ], [ -122.820886306, 43.928684995 ] ] } },
{ "type": "Feature", "properties": { "nhdplus_comid": 23751836 }, "geometry": { "type": "LineString", "coordinates": [ [ -122.820886306, 43.928684995 ], [ -122.821062401, 43.930810094 ], [ -122.823328502, 43.931847095 ], [ -122.823793501, 43.932191096 ], [ -122.823991604, 43.933087096 ] ] } },
{ "type": "Feature", "properties": { "nhdplus_comid": 23751834 }, "geometry": { "type": "LineString", "coordinates": [ [ -122.823991604, 43.933087096 ], [ -122.823999606, 43.933110096 ], [ -122.824945606, 43.933797099 ] ] } },
{ "type": "Feature", "properties": { "nhdplus_comid": 23751832 }, "geometry": { "type": "LineString", "coordinates": [ [ -122.824945606, 43.933797099 ], [ -122.827165805, 43.934895098 ], [ -122.826562807, 43.936467096 ] ] } },
{ "type": "Feature", "properties": { "nhdplus_comid": 23751830 }, "geometry": { "type": "LineString", "coordinates": [ [ -122.826562807, 43.936467096 ], [ -122.826143906, 43.939244196 ], [ -122.828036107, 43.943360195 ], [ -122.828768201, 43.943921193 ], [ -122.829890303, 43.944432199 ], [ -122.830912307, 43.943879195 ], [ -122.832255304, 43.9433292 ], [ -122.834719405, 43.9439172 ], [ -122.838549703, 43.945874199 ], [ -122.842333905, 43.948475197 ], [ -122.844181001, 43.949036196 ], [ -122.848240204, 43.949395098 ] ] } }
]
}
