{
"type": "FeatureCollection",
"name": "reach_14186100",
"crs": { "type": "name", "properties": { "name": "urn:ogc:def:crs:OGC:1.3:CRS84" } },
"features": [
{ "type": "Feature", "properties": { "nhdplus_comid": 23785925 }, "geometry": { "type": "LineString", "coordinates": [ [ -122.544460602, 44.453112699 ], [ -122.548374601, 44.450121693 ] ] } },
{ "type": "Feature", "properties": { "nhdplus_comid": 23785923 }, "geometry": { "type": "LineString", "coordinates": [ [ -122.548374601, 44.450121693 ], [ -122.548725605, 44.449755698 ], [ -122.549076602, 44.449610695 ] ] } },
{ "type": "Feature", "properties": { "nhdplus_comid": 23785921 }, "geometry": { "type": "LineString", "coordinates": [ [ -122.549076602, 44.449610695 ], [ -122.549175605, 44.449385695 ], [ -122.551022604, 44.447901696 ], [ -122.552143604, 44.447165698 ], [ -122.555744603, 44.445200697 ], [ -122.557507604, 44.443873793 ], [ -122.558331601, 44.4434468 ], [ -122.559292607, 44.443099797 ], [ -122.561367601, 44.442664795 ] ] } },
{ "type": "Feature", "properties": { "nhdplus_comid": 23785919 }, "geometry": { "type": "LineString", "coordinates": [ [ -122.561367601, 44.442664795 ], [ -122.563412704, 44.4421608 ], [ -122.566311702, 44.4408108 ], [ -122.5678147, 44.440375797 ], [ -122.576908804, 44.439509794 ] ] } },
{ "type": "Feature", "properties": { "nhdplus_comid": 23785917 }, "geometry": { "type": "LineString", "coordinates": [ [ -122.576908804, 44.439509794 ], [ -122.578915805, 44.438647799 ], [ -122.580906801, 44.438174799 ], [ -122.582424805, 44.437804796 ], [ -122.584499806, 44.437647797 ], [ -122.588268906, 44.437106796 ], [ -122.590794906, 44.436411798 ] ] } },
{ "type": "Feature", "properties": { "nhdplus_comid": 23785915 }, "geometry": { "type": "LineString", "coordinates": [ [ -122.590794906, 44.436411798 ], [ -122.591846906, 44.436457798 ], [ -122.5928699, 44.436255798 ], [ -122.594349906, 44.435637794 ], [ -122.595280901, 44.434813797 ], [ -122.595798902, 44.433646798 ], [ -122.596600905, 44.431956798 ], [ -122.600178905, 44.4301828 ], [ -122.602108903, 44.429026894 ], [ -122.604885906, 44.427683897 ], [ -122.610592902, 44.423739895 ], [ -122.612148903, 44.423617899 ], [ -122.613811903, 44.424243897 ], [ -122.615810901, 44.424716897 ], [ -122.618108004, 44.427168794 ], [ -122.619489007, 44.427065797 ], [ -122.620206006, 44.426005796 ], [ -122.624944001, 44.422637895 ] ] } },
{ "type": "Feature", "properties": { "nhdplus_comid": 23785913 }, "geometry": { "type": "LineString", "coordinates": [ [ -122.624944001, 44.422637895 ], [ -122.627935, 44.4203979 ], [ -122.631879002, 44.418715894 ], [ -122.633657001, 44.4165719 ] ] } },
{ "type": "Feature", "properties": { "nhdplus_comid": 23785773 }, "geometry": { "type": "LineString", "coordinates": [ [ -122.633657001, 44.4165719 ], [ -122.638669103, 44.4161909 ], [ -122.644940101, 44.414824896 ], [ -122.651029207, 44.415732898 ] ] } },
{ "type": "Feature", "properties": { "nhdplus_comid": 23785771 }, "geometry": { "type": "LineString", "coordinates": [ [ -122.651029207, 44.415732898 ], [ -122.652555205, 44.415434897 ] ] } },
{ "type": "Feature", "properties": { "nhdplus_comid": 23785769 }, "geometry": { "type": "LineString", "coordinates": [ [ -122.652555205, 44.415434897 ], [ -122.657483302, 44.414481893 ], [ -122.661984302, 44.414130896 ], [ -122.665433407, 44.416121796 ], [ -122.669934407, 44.4162478 ] ] } }
]
}
