{
"type": "FeatureCollection",
"name": "reach_14159400",
"crs": { "type": "name", "properties": { "name": "urn:ogc:def:crs:OGC:1.3:CRS84" } },
"features": [
{ "type": "Feature", "properties": { "nhdplus_comid": 23773011 }, "geometry": { "type": "LineString", "coordinates": [ [ -122.243553504, 44.126448795 ], [ -122.243591703, 44.127978794 ] ] } },
{ "type": "Feature", "properties": { "nhdplus_comid": 23773009 }, "geometry": { "type": "LineString", "coordinates": [ [ -122.243591703, 44.127978794 ], [ -122.243149802, 44.129309796 ], [ -122.243049905, 44.129855797 ], [ -122.242799006, 44.131232895 ], [ -122.242806204, 44.132689893 ], [ -122.242898203, 44.132971898 ], [ -122.245057501, 44.134955995 ], [ -122.247575805, 44.1364251 ], [ -122.248559907, 44.137176096 ], [ -122.249162003, 44.137813099 ], [ -122.249254003, 44.1380651 ] ] } },
{ "type": "Feature", "properties": { "nhdplus_comid": 23773007 }, "geometry": { "type": "LineString", "coordinates": [ [ -122.249254003, 44.1380651 ], [ -122.249475107, 44.138229094 ], [ -122.250208206, 44.139576197 ], [ -122.251268603, 44.142314196 ], [ -122.251810804, 44.143985294 ], [ -122.251947902, 44.144645296 ], [ -122.252314106, 44.1464113 ], [ -122.251742207, 44.147579297 ], [ -122.251368307, 44.148170397 ], [ -122.251330502, 44.149837397 ], [ -122.251613505, 44.1502534 ], [ -122.2520326, 44.1505244 ], [ -122.253901705, 44.150871396 ], [ -122.256312802, 44.151668496 ], [ -122.258884102, 44.153522499 ], [ -122.260883406, 44.155193597 ], [ -122.262600705, 44.157688595 ], [ -122.263203807, 44.1583516 ], [ -122.264027901, 44.158950694 ], [ -122.264630005, 44.159179695 ], [ -122.265836105, 44.159359694 ], [ -122.266820103, 44.159362696 ], [ -122.269170105, 44.159019694 ], [ -122.271146104, 44.158489697 ], [ -122.2723822, 44.1587677 ], [ -122.273839407, 44.159706697 ], [ -122.274701402, 44.159702696 ], [ -122.2761584, 44.159359694 ], [ -122.276639402, 44.159408696 ], [ -122.277173504, 44.159618795 ], [ -122.278165601, 44.1605988 ], [ -122.2785777, 44.1608238 ], [ -122.280293703, 44.160690799 ], [ -122.280988701, 44.160488799 ], [ -122.281278707, 44.160213798 ], [ -122.281308502, 44.158863798 ], [ -122.281430505, 44.158565797 ], [ -122.281850502, 44.158180796 ], [ -122.282224506, 44.157993793 ], [ -122.282796502, 44.1579438 ], [ -122.283528507, 44.158157796 ], [ -122.283978604, 44.158428796 ], [ -122.284551702, 44.159179799 ], [ -122.285275802, 44.159687795 ], [ -122.285886802, 44.159889795 ], [ -122.289183006, 44.160324894 ], [ -122.290327005, 44.160213895 ], [ -122.292044006, 44.159477897 ], [ -122.292616002, 44.159095898 ], [ -122.293631002, 44.158866897 ], [ -122.294363007, 44.158844896 ] ] } },
{ "type": "Feature", "properties": { "nhdplus_comid": 23773005 }, "geometry": { "type": "LineString", "coordinates": [ [ -122.294363007, 44.158844896 ], [ -122.295759104, 44.159317896 ] ] } },
{ "type": "Feature", "properties": { "nhdplus_comid": 23772997 }, "geometry": { "type": "LineString", "coordinates": [ [ -122.295759104, 44.159317896 ], [ -122.300100304, 44.159355894 ], [ -122.301764302, 44.159061894 ], [ -122.303877302, 44.158516899 ], [ -122.305021405, 44.158073895 ], [ -122.317984104, 44.151165895 ], [ -122.3202499, 44.150322899 ], [ -122.322119005, 44.1501389 ], [ -122.324316107, 44.150203899 ], [ -122.325888202, 44.1504559 ] ] } },
{ "type": "Feature", "properties": { "nhdplus_comid": 23772999 }, "geometry": { "type": "LineString", "coordinates": [ [ -122.325888202, 44.1504559 ], [ -122.3282912, 44.151187994 ] ] } },
{ "type": "Feature", "properties": { "nhdplus_comid": 23773001 }, "geometry": { "type": "LineString", "coordinates": [ [ -122.3282912, 44.151187994 ], [ -122.332014501, 44.152202994 ], [ -122.337515704, 44.151420996 ], [ -122.340368703, 44.151757099 ] ] } },
{ "type": "Feature", "properties": { "nhdplus_comid": 23773003 }, "geometry": { "type": "LineString", "coordinates": [ [ -122.340368703, 44.151757099 ], [ -122.343642205, 44.153164096 ] ] } },
{ "type": "Feature", "properties": { "nhdplus_comid": 23772991 }, "geometry": { "type": "LineString", "coordinates": [ [ -122.343642205, 44.153164096 ], [ -122.345183201, 44.153233096 ] ] } },
{ "type": "Feature", "properties": { "nhdplus_comid": 23772993 }, "geometry": { "type": "LineString", "coordinates": [ [ -122.345183201, 44.153233096 ], [ -122.352584407, 44.153229199 ], [ -122.354957402, 44.151951194 ], [ -122.356261306, 44.150384195 ], [ -122.357321903, 44.147172093 ] ] } }
]
}
