{
"type": "FeatureCollection",
"name": "reach_14153000",
"crs": { "type": "name", "properties": { "name": "urn:ogc:def:crs:OGC:1.3:CRS84" } },
"features": [
{ "type": "Feature", "properties": { "nhdplus_comid": 23759310 }, "geometry": { "type": "LineString", "coordinates": [ [ -123.050634101, 43.715695493 ], [ -123.050512202, 43.717152499 ], [ -123.050161205, 43.718457498 ], [ -123.050131306, 43.7198385 ], [ -123.0502223, 43.7202885 ] ] } },
{ "type": "Feature", "properties": { "nhdplus_comid": 23759308 }, "geometry": { "type": "LineString", "coordinates": [ [ -123.0502223, 43.7202885 ], [ -123.050573401, 43.721726499 ], [ -123.050825402, 43.722023495 ], [ -123.051298402, 43.722302496 ], [ -123.051862501, 43.722466499 ], [ -123.053030506, 43.722527497 ], [ -123.053594604, 43.722733498 ], [ -123.053915605, 43.723328494 ], [ -123.054167703, 43.725346498 ], [ -123.054327801, 43.725804493 ], [ -123.054891802, 43.726559497 ], [ -123.055586904, 43.727360494 ] ] } },
{ "type": "Feature", "properties": { "nhdplus_comid": 23759306 }, "geometry": { "type": "LineString", "coordinates": [ [ -123.055586904, 43.727360494 ], [ -123.055555902, 43.728047594 ], [ -123.054449901, 43.729577594 ], [ -123.052587904, 43.7310386 ], [ -123.051420905, 43.7322056 ], [ -123.0511389, 43.732685596 ], [ -123.051230006, 43.734585695 ], [ -123.051482007, 43.736142695 ], [ -123.051764101, 43.736798696 ], [ -123.052779205, 43.738400698 ], [ -123.053817302, 43.739380695 ], [ -123.054763407, 43.739941694 ], [ -123.056403503, 43.741146699 ], [ -123.057196602, 43.742108695 ], [ -123.057288602, 43.742451698 ], [ -123.0572576, 43.743252695 ], [ -123.057036705, 43.743821695 ], [ -123.0554877, 43.745972693 ], [ -123.055548705, 43.746655695 ] ] } },
{ "type": "Feature", "properties": { "nhdplus_comid": 23759304 }, "geometry": { "type": "LineString", "coordinates": [ [ -123.055548705, 43.746655695 ], [ -123.056311801, 43.746933699 ], [ -123.057853803, 43.746979699 ], [ -123.058104903, 43.747158699 ], [ -123.058265902, 43.747483693 ], [ -123.058357, 43.749401793 ], [ -123.058456004, 43.749844797 ], [ -123.059051104, 43.7513818 ], [ -123.059273101, 43.753121793 ], [ -123.059433103, 43.753514796 ], [ -123.060005203, 43.754406795 ], [ -123.060631201, 43.755089797 ], [ -123.0614473, 43.756394796 ], [ -123.061767302, 43.757199794 ], [ -123.062431403, 43.758404799 ], [ -123.063568503, 43.760689795 ], [ -123.0639726, 43.761536799 ], [ -123.064735606, 43.762200795 ], [ -123.068680905, 43.763783798 ], [ -123.070763007, 43.764809795 ], [ -123.071076006, 43.764855795 ] ] } },
{ "type": "Feature", "properties": { "nhdplus_comid": 23759302 }, "geometry": { "type": "LineString", "coordinates": [ [ -123.071076006, 43.764855795 ], [ -123.071236007, 43.765107796 ], [ -123.071618102, 43.765564799 ], [ -123.072305106, 43.766571797 ] ] } },
{ "type": "Feature", "properties": { "nhdplus_comid": 23759296 }, "geometry": { "type": "LineString", "coordinates": [ [ -123.072305106, 43.766571797 ], [ -123.072404101, 43.766823798 ], [ -123.073006205, 43.767048799 ], [ -123.072625302, 43.7737059 ], [ -123.072343305, 43.774002895 ], [ -123.071427301, 43.774300896 ], [ -123.070886202, 43.774685897 ], [ -123.070603207, 43.775559895 ], [ -123.070321202, 43.775948897 ] ] } },
{ "type": "Feature", "properties": { "nhdplus_comid": 23759294 }, "geometry": { "type": "LineString", "coordinates": [ [ -123.070321202, 43.775948897 ], [ -123.069245204, 43.776768893 ], [ -123.068772204, 43.777272895 ], [ -123.068650201, 43.777760997 ], [ -123.068612203, 43.778715 ], [ -123.068078205, 43.779469997 ], [ -123.068017207, 43.78029 ], [ -123.067223206, 43.781414993 ], [ -123.066941202, 43.782029994 ], [ -123.066972204, 43.782559998 ], [ -123.067353301, 43.783268996 ], [ -123.0680473, 43.783883996 ], [ -123.068078302, 43.78407 ], [ -123.068398401, 43.785412997 ], [ -123.068581402, 43.785962999 ], [ -123.070008501, 43.787903994 ], [ -123.070130505, 43.788201995 ], [ -123.070100605, 43.7894191 ], [ -123.069756605, 43.793012097 ], [ -123.069535606, 43.7938741 ], [ -123.069283605, 43.794172093 ], [ -123.068047605, 43.7949581 ] ] } },
{ "type": "Feature", "properties": { "nhdplus_comid": 23759292 }, "geometry": { "type": "LineString", "coordinates": [ [ -123.068047605, 43.7949581 ], [ -123.067765601, 43.795019098 ], [ -123.065835506, 43.796419196 ], [ -123.064233504, 43.797651194 ], [ -123.062585406, 43.799253196 ], [ -123.062241405, 43.799776196 ], [ -123.062051401, 43.799913198 ], [ -123.060883403, 43.801542297 ], [ -123.060250401, 43.802137293 ], [ -123.059426405, 43.804101296 ] ] } },
{ "type": "Feature", "properties": { "nhdplus_comid": 23759290 }, "geometry": { "type": "LineString", "coordinates": [ [ -123.059426405, 43.804101296 ], [ -123.059205405, 43.804353297 ], [ -123.058167405, 43.8067763 ], [ -123.057565406, 43.807100296 ], [ -123.052857205, 43.808103397 ], [ -123.051720105, 43.808176398 ], [ -123.051156104, 43.808031395 ], [ -123.049958102, 43.808076397 ], [ -123.049546003, 43.808263399 ], [ -123.048974, 43.808771394 ], [ -123.047906004, 43.810365394 ], [ -123.046418004, 43.812398493 ], [ -123.044869006, 43.814344496 ], [ -123.0449, 43.815031499 ], [ -123.045030005, 43.815397494 ], [ -123.045060001, 43.815992497 ], [ -123.045152001, 43.816156499 ], [ -123.045182101, 43.818872593 ], [ -123.0449301, 43.819559596 ], [ -123.043954104, 43.820459597 ] ] } }
]
}
