{
"type": "FeatureCollection",
"name": "reach_14145100",
"crs": { "type": "name", "properties": { "name": "urn:ogc:def:crs:OGC:1.3:CRS84" } },
"features": [
{ "type": "Feature", "properties": { "nhdplus_comid": 23751946 }, "geometry": { "type": "LineString", "coordinates": [ [ -122.420614004, 43.706937298 ], [ -122.421385005, 43.709314294 ], [ -122.422018006, 43.710042298 ] ] } },
{ "type": "Feature", "properties": { "nhdplus_comid": 23751944 }, "geometry": { "type": "LineString", "coordinates": [ [ -122.422018006, 43.710042298 ], [ -122.423254102, 43.711442396 ], [ -122.423437104, 43.711732395 ], [ -122.423933201, 43.712312393 ], [ -122.424689204, 43.712839395 ], [ -122.425101206, 43.712976396 ], [ -122.425322205, 43.712968394 ] ] } },
{ "type": "Feature", "properties": { "nhdplus_comid": 23751942 }, "geometry": { "type": "LineString", "coordinates": [ [ -122.425322205, 43.712968394 ], [ -122.425452203, 43.713220395 ], [ -122.4267103, 43.714090399 ], [ -122.427435301, 43.714456394 ], [ -122.428824402, 43.7153534 ], [ -122.430395506, 43.716245398 ], [ -122.434027702, 43.717638396 ], [ -122.437056802, 43.718599394 ] ] } },
{ "type": "Feature", "properties": { "nhdplus_comid": 23751940 }, "geometry": { "type": "LineString", "coordinates": [ [ -122.437056802, 43.718599394 ], [ -122.437147804, 43.718870394 ], [ -122.438940905, 43.720769398 ], [ -122.439666003, 43.7218455 ], [ -122.439765006, 43.722143494 ], [ -122.439796001, 43.7231085 ], [ -122.439414002, 43.724519499 ], [ -122.439491004, 43.724798493 ] ] } },
{ "type": "Feature", "properties": { "nhdplus_comid": 23751938 }, "geometry": { "type": "LineString", "coordinates": [ [ -122.439491004, 43.724798493 ], [ -122.439246006, 43.725973494 ] ] } },
{ "type": "Feature", "properties": { "nhdplus_comid": 23751936 }, "geometry": { "type": "LineString", "coordinates": [ [ -122.439246006, 43.725973494 ], [ -122.439414002, 43.7267325 ], [ -122.439971104, 43.727396496 ], [ -122.440399103, 43.727773495 ], [ -122.441505104, 43.728124499 ], [ -122.443847306, 43.728403494 ], [ -122.445030302, 43.729166493 ] ] } },
{ "type": "Feature", "properties": { "nhdplus_comid": 23751934 }, "geometry": { "type": "LineString", "coordinates": [ [ -122.445030302, 43.729166493 ], [ -122.445503302, 43.729509495 ], [ -122.446319401, 43.730566494 ] ] } },
{ "type": "Feature", "properties": { "nhdplus_comid": 23751932 }, "geometry": { "type": "LineString", "coordinates": [ [ -122.446319401, 43.730566494 ], [ -122.447463505, 43.732038595 ] ] } },
{ "type": "Feature", "properties": { "nhdplus_comid": 23751930 }, "geometry": { "type": "LineString", "coordinates": [ [ -122.447463505, 43.732038595 ], [ -122.450042605, 43.734983593 ], [ -122.450500704, 43.735555597 ], [ -122.451309703, 43.735975593 ], [ -122.452056706, 43.736215599 ], [ -122.453079805, 43.736200593 ], [ -122.455512904, 43.735960595 ], [ -122.457169004, 43.736471593 ], [ -122.462662302, 43.739179596 ] ] } },
{ "type": "Feature", "properties": { "nhdplus_comid": 23751928 }, "geometry": { "type": "LineString", "coordinates": [ [ -122.462662302, 43.739179596 ], [ -122.464592405, 43.740388595 ], [ -122.466790505, 43.742731698 ], [ -122.468384601, 43.743505694 ], [ -122.470253706, 43.743726693 ], [ -122.471749805, 43.743547693 ], [ -122.472924806, 43.742830694 ], [ -122.4746719, 43.740579598 ] ] } },
{ "type": "Feature", "properties": { "nhdplus_comid": 23751926 }, "geometry": { "type": "LineString", "coordinates": [ [ -122.4746719, 43.740579598 ], [ -122.475312904, 43.740118593 ], [ -122.476320006, 43.739839599 ], [ -122.4785171, 43.740011595 ], [ -122.483362302, 43.740957595 ], [ -122.486085504, 43.741567597 ] ] } },
{ "type": "Feature", "properties": { "nhdplus_comid": 23751924 }, "geometry": { "type": "LineString", "coordinates": [ [ -122.486085504, 43.741567597 ], [ -122.489252605, 43.742513694 ], [ -122.491968803, 43.743024699 ] ] } },
{ "type": "Feature", "properties": { "nhdplus_comid": 23751922 }, "geometry": { "type": "LineString", "coordinates": [ [ -122.491968803, 43.743024699 ], [ -122.496439002, 43.745615698 ], [ -122.497736104, 43.745405696 ], [ -122.499255203, 43.744791694 ], [ -122.499690205, 43.743906699 ] ] } },
{ "type": "Feature", "properties": { "nhdplus_comid": 23751920 }, "geometry": { "type": "LineString", "coordinates": [ [ -122.499690205, 43.743906699 ], [ -122.500109203, 43.743555695 ], [ -122.500430204, 43.743467696 ] ] } },
{ "type": "Feature", "properties": { "nhdplus_comid": 23751918 }, "geometry": { "type": "LineString", "coordinates": [ [ -122.500430204, 43.743467696 ], [ -122.501605205, 43.743139699 ], [ -122.504488401, 43.743169695 ], [ -122.506175406, 43.742475696 ] ] } },
{ "type": "Feature", "properties": { "nhdplus_comid": 23751910 }, "geometry": { "type": "LineString", "coordinates": [ [ -122.506175406, 43.742475696 ], [ -122.508624502, 43.741514698 ] ] } },
{ "type": "Feature", "properties": { "nhdplus_comid": 23751908 }, "geometry": { "type": "LineString", "coordinates": [ [ -122.508624502, 43.741514698 ], [ -122.510264605, 43.741411693 ] ] } },
{ "type": "Feature", "properties": { "nhdplus_comid": 23751906 }, "geometry": { "type": "LineString", "coordinates": [ [ -122.510264605, 43.741411693 ], [ -122.511095703, 43.742357694 ], [ -122.511088707, 43.743314698 ], [ -122.5101576, 43.744562693 ], [ -122.510378703, 43.746068694 ], [ -122.5118898, 43.747781694 ], [ -122.513598807, 43.747953698 ] ] } },
{ "type": "Feature", "properties": { "nhdplus_comid": 23751904 }, "geometry": { "type": "LineString", "coordinates": [ [ -122.513598807, 43.747953698 ], [ -122.514361903, 43.747407697 ] ] } },
{ "type": "Feature", "properties": { "nhdplus_comid": 23751902 }, "geometry": { "type": "LineString", "coordinates": [ [ -122.514361903, 43.747407697 ], [ -122.517581001, 43.7464277 ], [ -122.522243202, 43.7466757 ], [ -122.523838304, 43.746915698 ], [ -122.525371403, 43.747957699 ], [ -122.526325405, 43.749277696 ], [ -122.528499506, 43.751092799 ], [ -122.529262602, 43.751977794 ], [ -122.529491603, 43.7531268 ], [ -122.529033601, 43.753721796 ], [ -122.527133502, 43.7542248 ], [ -122.527332507, 43.755182795 ], [ -122.526912503, 43.755796798 ], [ -122.526645504, 43.756490797 ], [ -122.526447505, 43.757024795 ], [ -122.526416503, 43.757936798 ], [ -122.525341503, 43.758790798 ] ] } }
]
}
