{
"type": "FeatureCollection",
"name": "reach_14155000",
"crs": { "type": "name", "properties": { "name": "urn:ogc:def:crs:OGC:1.3:CRS84" } },
"features": [
{ "type": "Feature", "properties": { "nhdplus_comid": 23759588 }, "geometry": { "type": "LineString", "coordinates": [ [ -122.946078107, 43.783784695 ], [ -122.954981707, 43.786775693 ] ] } },
{ "type": "Feature", "properties": { "nhdplus_comid": 23759446 }, "geometry": { "type": "LineString", "coordinates": [ [ -122.954981707, 43.786775693 ], [ -122.955691703, 43.786634699 ] ] } },
{ "type": "Feature", "properties": { "nhdplus_comid": 23759444 }, "geometry": { "type": "LineString", "coordinates": [ [ -122.955691703, 43.786634699 ], [ -122.957118802, 43.786149696 ], [ -122.958781905, 43.786031693 ] ] } },
{ "type": "Feature", "properties": { "nhdplus_comid": 23759442 }, "geometry": { "type": "LineString", "coordinates": [ [ -122.958781905, 43.786031693 ], [ -122.962696105, 43.788118698 ], [ -122.963436201, 43.788560696 ], [ -122.9648403, 43.790121697 ], [ -122.966022402, 43.789968699 ], [ -122.966465406, 43.7897017 ], [ -122.967701405, 43.789213695 ], [ -122.968578503, 43.788949698 ], [ -122.9696775, 43.788976699 ], [ -122.970859602, 43.789148696 ], [ -122.972049706, 43.789575696 ], [ -122.973201707, 43.789659694 ], [ -122.975208804, 43.7897017 ], [ -122.977704003, 43.789514698 ], [ -122.978993006, 43.789686695 ], [ -122.980168104, 43.790258698 ] ] } },
{ "type": "Feature", "properties": { "nhdplus_comid": 23759440 }, "geometry": { "type": "LineString", "coordinates": [ [ -122.980168104, 43.790258698 ], [ -122.980389103, 43.790330693 ], [ -122.981053203, 43.790834695 ], [ -122.981183201, 43.791013695 ], [ -122.981595203, 43.791284695 ], [ -122.983487301, 43.792066693 ], [ -122.985570505, 43.792680696 ], [ -122.986264504, 43.792814694 ], [ -122.989964701, 43.792997696 ], [ -122.992230803, 43.792951696 ], [ -122.993970901, 43.792951696 ], [ -122.997602105, 43.792745695 ], [ -122.998106107, 43.792818695 ], [ -123.000158206, 43.792509697 ], [ -123.001219206, 43.792024598 ], [ -123.001463301, 43.791872598 ], [ -123.002035305, 43.791620597 ], [ -123.002256304, 43.791349597 ], [ -123.002447307, 43.790815599 ], [ -123.003614306, 43.789476596 ], [ -123.005193301, 43.788171597 ], [ -123.006933406, 43.7864585 ], [ -123.007406406, 43.785791494 ], [ -123.007749401, 43.785036497 ], [ -123.008108303, 43.783208497 ], [ -123.0083903, 43.782659493 ], [ -123.0089553, 43.781930499 ], [ -123.009618402, 43.781496495 ], [ -123.010755405, 43.780950494 ], [ -123.012495503, 43.780309394 ], [ -123.0137235, 43.780031398 ] ] } },
{ "type": "Feature", "properties": { "nhdplus_comid": 23759372 }, "geometry": { "type": "LineString", "coordinates": [ [ -123.0137235, 43.780031398 ], [ -123.015142605, 43.780469395 ], [ -123.015836604, 43.780580394 ], [ -123.018743806, 43.780740395 ], [ -123.020796902, 43.781225398 ], [ -123.021491006, 43.781522393 ], [ -123.023131102, 43.782754399 ], [ -123.024169207, 43.783971399 ], [ -123.024771206, 43.785322398 ], [ -123.025557302, 43.787240393 ], [ -123.025557302, 43.787538394 ] ] } },
{ "type": "Feature", "properties": { "nhdplus_comid": 23759370 }, "geometry": { "type": "LineString", "coordinates": [ [ -123.025557302, 43.787538394 ], [ -123.024237305, 43.790311396 ], [ -123.025237404, 43.792848498 ], [ -123.0303718, 43.7967925 ], [ -123.030303806, 43.7983265 ], [ -123.027594805, 43.800294496 ], [ -123.029525906, 43.802972496 ], [ -123.030090004, 43.804674499 ], [ -123.034042403, 43.810678594 ], [ -123.036133505, 43.812471598 ], [ -123.039169706, 43.812658496 ], [ -123.040535703, 43.813638493 ], [ -123.040703803, 43.814722493 ], [ -123.039215803, 43.816804595 ], [ -123.041633904, 43.818788595 ], [ -123.043244101, 43.820474595 ] ] } }
]
}
